ARIANE 40 R/B           
1 20443U 90005H   26056.16610943  .00000217  00000+0  82732-4 0  9991
2 20443  98.3112 117.1990 0009132 238.2696 121.7603 14.39860911891008
DELTA 2 R/B(1)          
1 20453U 90008B   26055.91946203  .00060269  00000+0  75384-3 0  9995
2 20453  35.6034 258.5428 0088090 139.8836 220.8445 15.54034713924142
COSMOS 2058             
1 20465U 90010A   26056.06786835  .00003607  00000+0  21295-3 0  9996
2 20465  82.4672  59.8630 0010250  25.8279 334.3461 15.11192346940336
SL-14 R/B               
1 20466U 90010B   26056.07434395  .00000339  00000+0  38197-4 0  9998
2 20466  82.4999 279.2414 0019426 345.8849  14.1821 14.83556509926610
SL-14 R/B               
1 20511U 90018B   26055.74246488  .00000473  00000+0  56354-4 0  9998
2 20511  82.5183 235.1929 0017389 131.4881 228.7829 14.82128522920669
HST                     
1 20580U 90037B   26056.28335081  .00007140  00000+0  23653-3 0  9996
2 20580  28.4689 124.6179 0001259 353.4201   6.6378 15.29261769771417
SL-16 R/B               
1 20625U 90046B   26056.18475829 -.00000016  00000+0  16225-4 0  9994
2 20625  71.0016 324.1764 0015817 316.7358  43.2521 14.15015286846620
COSMOS 2084             
1 20663U 90055A   26056.23566491  .00002814  00000+0  20767-3 0  9990
2 20663  62.7912  18.0500 0019022 187.1015 172.9819 15.05559438934443
SL-6 R/B(2)             
1 20666U 90055D   26055.66929731  .00002082  00000+0  16563-3 0  9995
2 20666  62.7831 298.1277 0022731 343.7050  16.3316 15.03525271936236
SL-8 R/B                
1 20775U 90078B   26056.07508799  .00012702  00000+0  37241-3 0  9990
2 20775  82.9003 262.6530 0365035  56.3288 307.2179 14.88598164807427
SL-8 R/B                
1 21088U 91006B   26056.27622797  .00000053  00000+0  37699-4 0  9991
2 21088  82.9459 179.2736 0023628  71.6417 350.1127 13.77492840762368
OKEAN-3                 
1 21397U 91039A   26056.24391644  .00003136  00000+0  22039-3 0  9997
2 21397  82.5201 348.8977 0014858  20.0312 340.1494 15.04704453863164
COSMOS 2151             
1 21422U 91042A   26056.20950571  .00001433  00000+0  11276-3 0  9995
2 21422  82.4938  95.7174 0014128 100.9196 259.3618 15.00050674861324
SL-14 R/B               
1 21423U 91042B   26055.72520023  .00000444  00000+0  53224-4 0  9998
2 21423  82.4900 232.3412 0015576 285.1575  74.7916 14.81814415851152
ERS-1                   
1 21574U 91050A   26056.04628166  .00000285  00000+0  10607-3 0  9997
2 21574  98.7890  73.9630 0031041 238.7400 121.0745 14.39437851813910
ARIANE 40 R/B           
1 21610U 91050F   26056.12730714  .00000241  00000+0  84694-4 0  9990
2 21610  98.2041 108.8337 0004343 108.3367 251.8297 14.42882973817185
INTERCOSMOS 25          
1 21819U 91086A   26056.19149555  .00001403  00000+0  26895-3 0  9993
2 21819  82.6072 317.5612 1487095 143.8565 227.2950 12.11958918495177
SL-8 R/B                
1 21876U 92008B   26056.15348403  .00000012  00000+0 -33631-5 0  9994
2 21876  82.9235 277.1058 0034893 167.6842 311.4648 13.75969931707695
SL-8 R/B                
1 21938U 92020B   26056.32506976  .00000076  00000+0  63599-4 0  9991
2 21938  82.9344 162.9390 0028220 334.6099  79.2073 13.75547886699436
USA 81                  
1 21949U 92023A   26056.29396810  .00000169  00000+0  55038-4 0  9998
2 21949  85.0108 138.5903 0002744  88.4169 271.7338 14.32363236 93018
COSMOS 2219             
1 22219U 92076A   26056.28329215  .00000357  00000+0  21178-3 0  9997
2 22219  71.0599  44.0024 0019575 223.6079 136.3497 14.14083983716625
SL-16 R/B               
1 22220U 92076B   26055.49353841  .00000270  00000+0  15828-3 0  9992
2 22220  70.9984 216.1695 0010921 120.6200 296.0036 14.16856265719963
COSMOS 2221             
1 22236U 92080A   26056.13098520  .00001568  00000+0  13690-3 0  9992
2 22236  82.5029 291.1116 0013035 231.8762 128.1286 14.96145631778915
SL-16 R/B               
1 22285U 92093B   26056.30156578  .00000126  00000+0  88877-4 0  9996
2 22285  71.0228  30.2703 0005981 307.0848  52.9728 14.15449096711408
COSMOS 2228             
1 22286U 92094A   26056.22244454  .00002147  00000+0  18330-3 0  9991
2 22286  82.5147 249.2497 0017679 348.5949  11.4870 14.97121406774192
SL-16 R/B               
1 22566U 93016B   26055.98735459  .00000167  00000+0  11045-3 0  9995
2 22566  71.0045 241.8612 0010970 331.7770  28.2757 14.15300763700377
COSMOS 2242             
1 22626U 93024A   26056.13246472  .00001588  00000+0  13726-3 0  9997
2 22626  82.5166 278.7297 0016195 353.1336   6.9661 14.96490434778516
SL-16 R/B               
1 22803U 93059B   26056.26635090  .00000264  00000+0  15439-3 0  9997
2 22803  70.9904  37.3237 0019000 233.6382 126.2989 14.17229197677772
ARIANE 40 R/B           
1 22830U 93061H   26056.19888695  .00000172  00000+0  78772-4 0  9991
2 22830  98.4944 125.3315 0009871 326.0872  33.9680 14.32853377692311
COSMOS 2278             
1 23087U 94023A   26055.86743185  .00000396  00000+0  23138-3 0  9995
2 23087  71.0526 201.9215 0007363  38.9468 321.2184 14.14369783642997
SL-16 R/B               
1 23088U 94023B   26056.27315175  .00000093  00000+0  72773-4 0  9990
2 23088  70.9990  96.9653 0005269 297.4840  62.5747 14.15012658644335
SL-16 R/B               
1 23343U 94074B   26056.07001076  .00000409  00000+0  61513-4 0  9991
2 23343  97.7127  87.3979 0005136 260.4112 119.3946 14.79390812685381
SL-16 R/B               
1 23405U 94077B   26056.25959673 -.00000114  00000+0 -33747-4 0  9991
2 23405  70.9846  18.6372 0003704 226.5863 133.4952 14.15563964614476
ARIANE 40+ R/B          
1 23561U 95021B   26056.23612673  .00000275  00000+0  10170-3 0  9998
2 23561  98.4523 127.8857 0007077 170.0389 241.0517 14.39762245617453
SL-16 R/B               
1 23705U 95058B   26055.48862047 -.00000230  00000+0 -93367-4 0  9999
2 23705  71.0204 207.9684 0011202 149.2102 210.9681 14.15494214565989
SL-16 R/B               
1 24298U 96051B   26056.13487741  .00000088  00000+0  74533-4 0  9991
2 24298  70.7587 201.8109 0016201 166.2212 193.9354 14.12411948519871
ORBVIEW 2 (SEASTAR)     
1 24883U 97037A   26056.28968625  .00000287  00000+0  11595-3 0  9996
2 24883  98.8546 220.2745 0003210  96.9300 263.2250 14.35483867506697
SL-16 R/B               
1 25400U 98043G   26055.82152891  .00000066  00000+0  46528-4 0  9999
2 25400  98.8231   9.0957 0010751  55.2481 304.9709 14.26046407437159
SL-16 R/B               
1 25407U 98045B   26055.50605661 -.00000093  00000+0 -22730-4 0  9992
2 25407  71.0105 209.2968 0006038  29.5832 330.5631 14.16191329425230
ISS (ZARYA)             
1 25544U 98067A   26056.18628621  .00010179  00000+0  19739-3 0  9992
2 25544  51.6318 134.1640 0008356 131.0189 229.1523 15.48279367554392
CZ-4B R/B               
1 25732U 99025C   26056.10097651  .00000037  00000+0  38427-4 0  9999
2 25732  98.6655 100.6792 0037441  22.8347   3.3980 14.18262500386380
OKEAN-O                 
1 25860U 99039A   26056.14710125  .00000586  00000+0  83711-4 0  9993
2 25860  97.9471 116.1643 0001603  75.9910 284.1480 14.80312191432537
SL-16 R/B               
1 25861U 99039B   26056.13879798  .00000503  00000+0  70666-4 0  9999
2 25861  97.9995 115.2524 0013575 300.9331  59.0546 14.81711326435007
DELTA 2 R/B             
1 25876U 99041E   26056.19454153  .00001563  00000+0  28923-3 0  9993
2 25876  51.7666 351.1826 0502239 311.5352  44.3510 14.11788581361267
HELIOS 1B               
1 25977U 99064A   26056.27071057  .00001649  00000+0  18766-3 0  9996
2 25977  98.1709 318.1484 0002455  91.6763 268.4733 14.87639300683419
TERRA                   
1 25994U 99068A   26056.25216231  .00000432  00000+0  97098-4 0  9997
2 25994  97.9621 110.1604 0001826 184.4181 244.7597 14.60999560393262
SL-16 R/B               
1 26070U 00006B   26056.29521941  .00000261  00000+0  15664-3 0  9996
2 26070  71.0019 123.9002 0017563 207.1848 152.8357 14.15820453346809
TITAN 4B R/B            
1 26474U 00047B   26056.30573788  .00003288  00000+0  21004-3 0  9994
2 26474  67.9885  75.3314 0037781  50.2919 310.1550 15.09431912391040
ENVISAT                 
1 27386U 02009A   26056.31717696  .00000126  00000+0  54754-4 0  9993
2 27386  98.3705  10.2107 0001375  86.1049  38.2096 14.39031654257395
IDEFIX & ARIANE 42P R/B 
1 27422U 02021B   26056.25982644  .00000265  00000+0  11722-3 0  9999
2 27422  98.5857 355.0158 0010921 220.5424 139.4946 14.31016053242244
AQUA                    
1 27424U 02022A   26056.23803751  .00001035  00000+0  21651-3 0  9999
2 27424  98.4151  23.3785 0000889  48.9835  64.1340 14.61941816266912
CZ-4B R/B               
1 27432U 02024C   26056.12039053  .00000027  00000+0  36761-4 0  9993
2 27432  98.8870 109.5888 0050999  59.4948 320.7455 14.14545069227466
MIDORI II (ADEOS-II)    
1 27597U 02056A   26056.13279717  .00000236  00000+0  11055-3 0  9994
2 27597  98.7746  14.5257 0001977  60.4867 299.6511 14.29273949208500
H-2A R/B                
1 27601U 02056E   26056.13870696  .00000253  00000+0  10326-3 0  9992
2 27601  98.3178  16.9840 0069715 198.1032 187.2472 14.33750998212313
CZ-4B R/B               
1 28059U 03049C   26055.93649509  .00000369  00000+0  96499-4 0  9991
2 28059  98.6867  50.3424 0046993 270.7342  88.8470 14.55005157184746
CZ-2C R/B               
1 28222U 04012C   26056.13029828  .00044691  00000+0  49182-3 0  9995
2 28222  97.7262 120.2468 0013945   0.1360 359.9899 15.62913951202318
SL-16 R/B               
1 28353U 04021B   26056.01161879  .00000102  00000+0  77926-4 0  9997
2 28353  70.9989 259.1002 0003395  38.5046 321.6318 14.14599157121048
CZ-4B R/B               
1 28415U 04035C   26056.08160270  .00007260  00000+0  25799-3 0  9994
2 28415  97.3529  90.4769 0032592  16.7322 343.4985 15.28803002177981
CZ-2C R/B               
1 28480U 04046B   26056.28485477  .00000110  00000+0  56177-4 0  9991
2 28480  98.1989 332.0401 0139127 191.0883 168.7225 14.26987429106734
